# Made by eph2tle, compiled Oct 13 2018 20:01:00
# Run at Wed Oct 24 22:47:22 2018
#
# No updates (see 69046f.tle for current/future TLEs)
#
#    The following TLEs (Two-Line Elements) were generated by fitting
# a numerically-integrated ephemeris,  based on the orbit given below,
# to the SDP4/SGP4 models.  Each TLE is good for the interval between
# its epoch and the epoch of the subsequent TLE (usually one day).
# The maximum deviation between the numerically integrated ephemerides
# and the TLE-based ephemeris, in kilometers,  is given for each TLE
# as the "worst residual".
#
#    This fitting is done using the 'eph2tle' code packaged with Find_Orb.
# The code has details on how the TLEs were computed :
#
#    https://github.com/Bill-Gray/find_orb/eph2tle.cpp
#
#    Be warned:  the error given is that between the numerically
# integrated ephems and the TLE model.  There will usually be at
# least some additional difference between the ephems and the actual
# motion of the satellite,  especially if the ephemerides are based
# on a short arc.  If the following orbital elements say something
# like "[based on] 10 observations 2015 Jan. 1-13",  and the TLEs
# are for 2015 May,  the extrapolation may be tenuous at best.  If
# your application requires a specific level of accuracy,  you may
# want to contact me;  I can give you some idea as to the fit of the
# underlying data (and possibly TLEs based on newer data).
#
#   You can usually find the underlying observational data,  and the
# fitted orbit,  residuals,  ephemerides,  and sometimes some comments
# about the object,  among the pages listed at
#
#    https://www.projectpluto.com/pluto/mpecs/pseudo.htm
#
#    Also,  if you use a TLE outside the "correct" time range (between
# its MJD and that of the next TLE),  all bets are off.  I've carefully
# computed and minimized the worst error over the "correct" time frame,
# but the ephemeris may (or may not) diverge wildly outside of it.
#
# Ephem range: 56658.000000 56901.000000 1.000000
# Created Wed Oct 24 22:47:11 2018
# Ephemeris start:  1 Jan 2014  0:00:00
# Ephemeris end:    1 Sep 2014  0:00:00
# Times are all TDT
# Positions/velocities are in equatorial J2000
# Orbital elements:  1969-046F = NORAD 03956 = Vela booster
#    Perigee 2014 Feb 28.489937 +/- 0.000146 TT = 11:45:30 (JD 2456716.989937)
# Epoch 2014 Mar  1.0 TT; AMR -0.0070282 +/- 0.00331 m^2/kg     Gray
# M  84.768404589 +/- 0.024           (J2000 equator)
# n 166.191967403 +/- 4.61e-5         Peri.  176.005782 +/- 0.008
# a 70718.02991 +/- 0.0131            Node    21.744975 +/- 0.0054
# e   0.81004286 +/- 4.37e-5          Incl.   13.827727 +/- 0.0013
# P3119.23m/2.166d           H 29.7   G  0.15   U  6.1
# q 13433.39448 +/- 3.09    Q 128002.6653 +/- 3.09
# 42 of 182 observations 2013 Sept. 5-2014 Sept. 20; mean residual 16".314
#
# 1 NoradU COSPAR   Epoch.epoch     dn/dt/2  d2n/dt2/6 BSTAR    T El# C
# 2 NoradU Inclina RAAscNode Eccent  ArgPeri MeanAno  MeanMotion Rev# C

# Worst residual: 9.88 km
# MJD 56658.000000 (2014 Jan  1  0:00)
1969-046F = NORAD 03956 = Vela booster
1 03956U 69046F   14001.49922241  .00000000  00000-0  00000-0 0  2989
2 03956 013.0884 022.6838 8075571 174.2719 077.6115 00.46206379    06

# Worst residual: 5.55 km
# MJD 56659.000000 (2014 Jan  2  0:00)
1969-046F = NORAD 03956 = Vela booster
1 03956U 69046F   14002.49922241  .00000000  00000-0  00000-0 0  2980
2 03956 013.0977 022.6725 8076065 174.3012 243.8944 00.46203560    06

# Worst residual: 12.67 km
# MJD 56660.000000 (2014 Jan  3  0:00)
1969-046F = NORAD 03956 = Vela booster
1 03956U 69046F   14003.49922241  .00000000  00000-0  00000-0 0  2981
2 03956 013.1150 022.6471 8073489 174.3375 050.1556 00.46201626    06

# Worst residual: 4.08 km
# MJD 56661.000000 (2014 Jan  4  0:00)
1969-046F = NORAD 03956 = Vela booster
1 03956U 69046F   14004.49922241  .00000000  00000-0  00000-0 0  2982
2 03956 013.1259 022.6320 8079187 174.3597 216.4010 00.46207846    08

# Worst residual: 8.23 km
# MJD 56662.000000 (2014 Jan  5  0:00)
1969-046F = NORAD 03956 = Vela booster
1 03956U 69046F   14005.49922241  .00000000  00000-0  00000-0 0  2983
2 03956 013.1415 022.6086 8079127 174.4035 022.7249 00.46202082    02

# Worst residual: 7.53 km
# MJD 56663.000000 (2014 Jan  6  0:00)
1969-046F = NORAD 03956 = Vela booster
1 03956U 69046F   14006.49922241  .00000000  00000-0  00000-0 0  2984
2 03956 013.1682 022.5631 8083738 174.4815 188.8384 00.46182208    03

# Worst residual: 13.23 km
# MJD 56664.000000 (2014 Jan  7  0:00)
1969-046F = NORAD 03956 = Vela booster
1 03956U 69046F   14007.49922241  .00000000  00000-0  00000-0 0  2985
2 03956 013.1987 022.5512 8087261 174.5383 355.0867 00.46195241    00

# Worst residual: 6.29 km
# MJD 56665.000000 (2014 Jan  8  0:00)
1969-046F = NORAD 03956 = Vela booster
1 03956U 69046F   14008.49922241  .00000000  00000-0  00000-0 0  2986
2 03956 013.2233 022.5034 8085731 174.6339 161.3042 00.46180139    09

# Worst residual: 8.93 km
# MJD 56666.000000 (2014 Jan  9  0:00)
1969-046F = NORAD 03956 = Vela booster
1 03956U 69046F   14009.49922241  .00000000  00000-0  00000-0 0  2987
2 03956 013.2693 022.4948 8084703 174.6830 327.4382 00.46187918    00

# Worst residual: 5.58 km
# MJD 56667.000000 (2014 Jan 10  0:00)
1969-046F = NORAD 03956 = Vela booster
1 03956U 69046F   14010.49922241  .00000000  00000-0  00000-0 0  2989
2 03956 013.2830 022.4692 8083731 174.7416 133.7298 00.46198772    04

# Worst residual: 9.84 km
# MJD 56668.000000 (2014 Jan 11  0:00)
1969-046F = NORAD 03956 = Vela booster
1 03956U 69046F   14011.49922241  .00000000  00000-0  00000-0 0  2980
2 03956 013.3095 022.4567 8079797 174.7670 299.9756 00.46187970    00

# Worst residual: 5.58 km
# MJD 56669.000000 (2014 Jan 12  0:00)
1969-046F = NORAD 03956 = Vela booster
1 03956U 69046F   14012.49922241  .00000000  00000-0  00000-0 0  2981
2 03956 013.3230 022.4416 8080268 174.8062 106.2325 00.46196478    00

# Worst residual: 7.94 km
# MJD 56670.000000 (2014 Jan 13  0:00)
1969-046F = NORAD 03956 = Vela booster
1 03956U 69046F   14013.49922241  .00000000  00000-0  00000-0 0  2982
2 03956 013.3319 022.4296 8080968 174.8288 272.5617 00.46204170    01

# Worst residual: 8.17 km
# MJD 56671.000000 (2014 Jan 14  0:00)
1969-046F = NORAD 03956 = Vela booster
1 03956U 69046F   14014.49922241  .00000000  00000-0  00000-0 0  2983
2 03956 013.3476 022.4079 8079661 174.8662 078.8226 00.46193518    04

# Worst residual: 1.76 km
# MJD 56672.000000 (2014 Jan 15  0:00)
1969-046F = NORAD 03956 = Vela booster
1 03956U 69046F   14015.49922241  .00000000  00000-0  00000-0 0  2984
2 03956 013.3525 022.3986 8082932 174.8873 245.1119 00.46205215    02

# Worst residual: 8.05 km
# MJD 56673.000000 (2014 Jan 16  0:00)
1969-046F = NORAD 03956 = Vela booster
1 03956U 69046F   14016.49922241  .00000000  00000-0  00000-0 0  2985
2 03956 013.3678 022.3734 8081562 174.9317 051.3973 00.46206156    04

# Worst residual: 2.38 km
# MJD 56674.000000 (2014 Jan 17  0:00)
1969-046F = NORAD 03956 = Vela booster
1 03956U 69046F   14017.49922241  .00000000  00000-0  00000-0 0  2986
2 03956 013.3747 022.3617 8084017 174.9662 217.6276 00.46199670    07

# Worst residual: 6.27 km
# MJD 56675.000000 (2014 Jan 18  0:00)
1969-046F = NORAD 03956 = Vela booster
1 03956U 69046F   14018.49922241  .00000000  00000-0  00000-0 0  2987
2 03956 013.3896 022.3389 8082940 175.0123 023.9137 00.46209557    05

# Worst residual: 2.86 km
# MJD 56676.000000 (2014 Jan 19  0:00)
1969-046F = NORAD 03956 = Vela booster
1 03956U 69046F   14019.49922241  .00000000  00000-0  00000-0 0  2988
2 03956 013.3968 022.3250 8084293 175.0515 190.1505 00.46197010    06

# Worst residual: 10.67 km
# MJD 56677.000000 (2014 Jan 20  0:00)
1969-046F = NORAD 03956 = Vela booster
1 03956U 69046F   14020.49922241  .00000000  00000-0  00000-0 0  2980
2 03956 013.4084 022.3043 8083674 175.0906 356.4380 00.46186743    01

# Worst residual: 1.26 km
# MJD 56678.000000 (2014 Jan 21  0:00)
1969-046F = NORAD 03956 = Vela booster
1 03956U 69046F   14021.49922241  .00000000  00000-0  00000-0 0  2981
2 03956 013.4160 022.2900 8083979 175.1272 162.7031 00.46196738    08

# Worst residual: 12.05 km
# MJD 56679.000000 (2014 Jan 22  0:00)
1969-046F = NORAD 03956 = Vela booster
1 03956U 69046F   14022.49922241  .00000000  00000-0  00000-0 0  2982
2 03956 013.4232 022.2721 8083646 175.1563 329.0099 00.46178675    05

# Worst residual: 4.28 km
# MJD 56680.000000 (2014 Jan 23  0:00)
1969-046F = NORAD 03956 = Vela booster
1 03956U 69046F   14023.49922241  .00000000  00000-0  00000-0 0  2983
2 03956 013.4313 022.2528 8083648 175.2030 135.2639 00.46191691    02

# Worst residual: 5.39 km
# MJD 56681.000000 (2014 Jan 24  0:00)
1969-046F = NORAD 03956 = Vela booster
1 03956U 69046F   14024.49922241  .00000000  00000-0  00000-0 0  2984
2 03956 013.4350 022.2392 8084313 175.2317 301.5483 00.46190278    05

# Worst residual: 6.00 km
# MJD 56682.000000 (2014 Jan 25  0:00)
1969-046F = NORAD 03956 = Vela booster
1 03956U 69046F   14025.49922241  .00000000  00000-0  00000-0 0  2985
2 03956 013.4461 022.2129 8084389 175.2960 107.7942 00.46186524    08

# Worst residual: 6.77 km
# MJD 56683.000000 (2014 Jan 26  0:00)
1969-046F = NORAD 03956 = Vela booster
1 03956U 69046F   14026.49922241  .00000000  00000-0  00000-0 0  2986
2 03956 013.4525 022.2000 8086017 175.3347 274.0210 00.46199808    02

# Worst residual: 3.41 km
# MJD 56684.000000 (2014 Jan 27  0:00)
1969-046F = NORAD 03956 = Vela booster
1 03956U 69046F   14027.49922241  .00000000  00000-0  00000-0 0  2987
2 03956 013.4678 022.1757 8085042 175.3891 080.2886 00.46199459    08

# Worst residual: 5.92 km
# MJD 56685.000000 (2014 Jan 28  0:00)
1969-046F = NORAD 03956 = Vela booster
1 03956U 69046F   14028.49922241  .00000000  00000-0  00000-0 0  2988
2 03956 013.4804 022.1621 8085038 175.4304 246.5202 00.46197483    08
